[{"OBJECT_NAME":"ONEWEB-0125","OBJECT_ID":"2020-100P","EPOCH":"2025-07-30T21:50:48.833088","MEAN_MOTION":13.12443619,"ECCENTRICITY":0.0001745,"INCLINATION":87.8862,"RA_OF_ASC_NODE":54.516,"ARG_OF_PERICENTER":95.3517,"MEAN_ANOMALY":264.781,"EPHEMERIS_TYPE":0,"CLASSIFICATION_TYPE":"U","NORAD_CAT_ID":47271,"ELEMENT_SET_NO":999,"REV_AT_EPOCH":22249,"BSTAR":-0.00076407,"MEAN_MOTION_DOT":-2.62e-6,"MEAN_MOTION_DDOT":0},{"OBJECT_NAME":"ONEWEB-0126","OBJECT_ID":"2020-100Q","EPOCH":"2025-07-30T22:21:24.052032","MEAN_MOTION":13.12443403,"ECCENTRICITY":0.0001652,"INCLINATION":87.8869,"RA_OF_ASC_NODE":54.5296,"ARG_OF_PERICENTER":83.7646,"MEAN_ANOMALY":276.3671,"EPHEMERIS_TYPE":0,"CLASSIFICATION_TYPE":"U","NORAD_CAT_ID":47272,"ELEMENT_SET_NO":999,"REV_AT_EPOCH":22256,"BSTAR":0.00094321,"MEAN_MOTION_DOT":3.52e-6,"MEAN_MOTION_DDOT":0},{"OBJECT_NAME":"ONEWEB-0127","OBJECT_ID":"2020-100R","EPOCH":"2025-07-30T19:42:20.393568","MEAN_MOTION":13.12443254,"ECCENTRICITY":0.0001696,"INCLINATION":87.8863,"RA_OF_ASC_NODE":54.5669,"ARG_OF_PERICENTER":81.1064,"MEAN_ANOMALY":279.0257,"EPHEMERIS_TYPE":0,"CLASSIFICATION_TYPE":"U","NORAD_CAT_ID":47273,"ELEMENT_SET_NO":999,"REV_AT_EPOCH":22257,"BSTAR":-0.0012454,"MEAN_MOTION_DOT":-4.35e-6,"MEAN_MOTION_DDOT":0},{"OBJECT_NAME":"ONEWEB-0128","OBJECT_ID":"2020-100S","EPOCH":"2025-07-30T22:04:49.989792","MEAN_MOTION":13.12443665,"ECCENTRICITY":0.0001901,"INCLINATION":87.8856,"RA_OF_ASC_NODE":54.574,"ARG_OF_PERICENTER":79.4157,"MEAN_ANOMALY":280.7185,"EPHEMERIS_TYPE":0,"CLASSIFICATION_TYPE":"U","NORAD_CAT_ID":47274,"ELEMENT_SET_NO":999,"REV_AT_EPOCH":22260,"BSTAR":0.00020041,"MEAN_MOTION_DOT":8.5e-7,"MEAN_MOTION_DDOT":0},{"OBJECT_NAME":"ONEWEB-0129","OBJECT_ID":"2020-100T","EPOCH":"2025-07-30T19:44:40.794432","MEAN_MOTION":13.12443002,"ECCENTRICITY":0.0001124,"INCLINATION":87.8861,"RA_OF_ASC_NODE":54.5361,"ARG_OF_PERICENTER":42.8498,"MEAN_ANOMALY":317.2718,"EPHEMERIS_TYPE":0,"CLASSIFICATION_TYPE":"U","NORAD_CAT_ID":47275,"ELEMENT_SET_NO":999,"REV_AT_EPOCH":22252,"BSTAR":-0.0011873,"MEAN_MOTION_DOT":-4.14e-6,"MEAN_MOTION_DDOT":0},{"OBJECT_NAME":"ONEWEB-0130","OBJECT_ID":"2020-100U","EPOCH":"2025-07-30T22:14:10.441536","MEAN_MOTION":13.1244577,"ECCENTRICITY":0.0001776,"INCLINATION":87.8847,"RA_OF_ASC_NODE":54.5153,"ARG_OF_PERICENTER":82.3239,"MEAN_ANOMALY":277.8091,"EPHEMERIS_TYPE":0,"CLASSIFICATION_TYPE":"U","NORAD_CAT_ID":47276,"ELEMENT_SET_NO":999,"REV_AT_EPOCH":22250,"BSTAR":0.00068453,"MEAN_MOTION_DOT":2.59e-6,"MEAN_MOTION_DDOT":0},{"OBJECT_NAME":"ONEWEB-0131","OBJECT_ID":"2020-100V","EPOCH":"2025-07-30T22:09:30.945312","MEAN_MOTION":13.12442802,"ECCENTRICITY":0.0001834,"INCLINATION":87.8857,"RA_OF_ASC_NODE":54.5426,"ARG_OF_PERICENTER":84.6071,"MEAN_ANOMALY":275.5267,"EPHEMERIS_TYPE":0,"CLASSIFICATION_TYPE":"U","NORAD_CAT_ID":47277,"ELEMENT_SET_NO":999,"REV_AT_EPOCH":22254,"BSTAR":0.0004873,"MEAN_MOTION_DOT":1.88e-6,"MEAN_MOTION_DDOT":0},{"OBJECT_NAME":"ONEWEB-0132","OBJECT_ID":"2020-100W","EPOCH":"2025-07-30T19:11:59.321760","MEAN_MOTION":13.12442515,"ECCENTRICITY":0.0001886,"INCLINATION":87.8857,"RA_OF_ASC_NODE":54.5696,"ARG_OF_PERICENTER":90.4291,"MEAN_ANOMALY":269.7053,"EPHEMERIS_TYPE":0,"CLASSIFICATION_TYPE":"U","NORAD_CAT_ID":47278,"ELEMENT_SET_NO":999,"REV_AT_EPOCH":22242,"BSTAR":0.00029574,"MEAN_MOTION_DOT":1.19e-6,"MEAN_MOTION_DDOT":0},{"OBJECT_NAME":"ONEWEB-0133","OBJECT_ID":"2020-100X","EPOCH":"2025-07-30T19:35:08.320128","MEAN_MOTION":13.12442631,"ECCENTRICITY":0.0001899,"INCLINATION":87.8847,"RA_OF_ASC_NODE":54.5412,"ARG_OF_PERICENTER":83.4847,"MEAN_ANOMALY":276.6498,"EPHEMERIS_TYPE":0,"CLASSIFICATION_TYPE":"U","NORAD_CAT_ID":47279,"ELEMENT_SET_NO":999,"REV_AT_EPOCH":22258,"BSTAR":-0.00095405,"MEAN_MOTION_DOT":-3.3e-6,"MEAN_MOTION_DDOT":0},{"OBJECT_NAME":"ONEWEB-0134","OBJECT_ID":"2020-100Y","EPOCH":"2025-07-30T22:30:31.570560","MEAN_MOTION":13.12442371,"ECCENTRICITY":0.0001808,"INCLINATION":87.885,"RA_OF_ASC_NODE":54.5005,"ARG_OF_PERICENTER":77.5589,"MEAN_ANOMALY":282.5742,"EPHEMERIS_TYPE":0,"CLASSIFICATION_TYPE":"U","NORAD_CAT_ID":47280,"ELEMENT_SET_NO":999,"REV_AT_EPOCH":22257,"BSTAR":0.0012882,"MEAN_MOTION_DOT":4.76e-6,"MEAN_MOTION_DDOT":0},{"OBJECT_NAME":"ONEWEB-0135","OBJECT_ID":"2020-100Z","EPOCH":"2025-07-30T19:58:41.776608","MEAN_MOTION":13.12443485,"ECCENTRICITY":0.0002025,"INCLINATION":87.8855,"RA_OF_ASC_NODE":54.5607,"ARG_OF_PERICENTER":74.5827,"MEAN_ANOMALY":285.5525,"EPHEMERIS_TYPE":0,"CLASSIFICATION_TYPE":"U","NORAD_CAT_ID":47281,"ELEMENT_SET_NO":999,"REV_AT_EPOCH":22258,"BSTAR":-0.0006683,"MEAN_MOTION_DOT":-2.28e-6,"MEAN_MOTION_DDOT":0},{"OBJECT_NAME":"ONEWEB-0136","OBJECT_ID":"2020-100AA","EPOCH":"2025-07-30T22:16:30.990144","MEAN_MOTION":13.12442606,"ECCENTRICITY":0.0001781,"INCLINATION":87.8857,"RA_OF_ASC_NODE":54.5088,"ARG_OF_PERICENTER":70.6433,"MEAN_ANOMALY":289.4888,"EPHEMERIS_TYPE":0,"CLASSIFICATION_TYPE":"U","NORAD_CAT_ID":47282,"ELEMENT_SET_NO":999,"REV_AT_EPOCH":22252,"BSTAR":0.00074926,"MEAN_MOTION_DOT":2.82e-6,"MEAN_MOTION_DDOT":0},{"OBJECT_NAME":"ONEWEB-0137","OBJECT_ID":"2020-100AB","EPOCH":"2025-07-30T19:25:59.869344","MEAN_MOTION":13.12441843,"ECCENTRICITY":0.0001562,"INCLINATION":87.8856,"RA_OF_ASC_NODE":54.5393,"ARG_OF_PERICENTER":88.4944,"MEAN_ANOMALY":271.6363,"EPHEMERIS_TYPE":0,"CLASSIFICATION_TYPE":"U","NORAD_CAT_ID":47283,"ELEMENT_SET_NO":999,"REV_AT_EPOCH":22241,"BSTAR":-0.0005762,"MEAN_MOTION_DOT":-1.95e-6,"MEAN_MOTION_DDOT":0},{"OBJECT_NAME":"ONEWEB-0138","OBJECT_ID":"2020-100AC","EPOCH":"2025-07-30T22:35:12.151968","MEAN_MOTION":13.12442044,"ECCENTRICITY":0.0001708,"INCLINATION":87.8852,"RA_OF_ASC_NODE":54.5235,"ARG_OF_PERICENTER":81.7598,"MEAN_ANOMALY":278.3724,"EPHEMERIS_TYPE":0,"CLASSIFICATION_TYPE":"U","NORAD_CAT_ID":47284,"ELEMENT_SET_NO":999,"REV_AT_EPOCH":22251,"BSTAR":0.0011295,"MEAN_MOTION_DOT":4.19e-6,"MEAN_MOTION_DDOT":0},{"OBJECT_NAME":"ONEWEB-0139","OBJECT_ID":"2020-100AD","EPOCH":"2025-07-30T14:22:33.105792","MEAN_MOTION":13.12442181,"ECCENTRICITY":0.0001741,"INCLINATION":87.8853,"RA_OF_ASC_NODE":54.585,"ARG_OF_PERICENTER":85.3674,"MEAN_ANOMALY":274.7654,"EPHEMERIS_TYPE":0,"CLASSIFICATION_TYPE":"U","NORAD_CAT_ID":47285,"ELEMENT_SET_NO":999,"REV_AT_EPOCH":22254,"BSTAR":-0.0010019,"MEAN_MOTION_DOT":-3.48e-6,"MEAN_MOTION_DDOT":0},{"OBJECT_NAME":"ONEWEB-0140","OBJECT_ID":"2020-100AE","EPOCH":"2025-07-30T22:25:51.596544","MEAN_MOTION":13.12442174,"ECCENTRICITY":0.0001748,"INCLINATION":87.885,"RA_OF_ASC_NODE":54.5018,"ARG_OF_PERICENTER":81.7565,"MEAN_ANOMALY":278.3761,"EPHEMERIS_TYPE":0,"CLASSIFICATION_TYPE":"U","NORAD_CAT_ID":47286,"ELEMENT_SET_NO":999,"REV_AT_EPOCH":22255,"BSTAR":0.0010405,"MEAN_MOTION_DOT":3.87e-6,"MEAN_MOTION_DDOT":0},{"OBJECT_NAME":"ONEWEB-0141","OBJECT_ID":"2020-100AF","EPOCH":"2025-07-30T14:22:09.684480","MEAN_MOTION":13.12443378,"ECCENTRICITY":0.000147,"INCLINATION":87.8847,"RA_OF_ASC_NODE":54.5866,"ARG_OF_PERICENTER":91.8451,"MEAN_ANOMALY":268.2845,"EPHEMERIS_TYPE":0,"CLASSIFICATION_TYPE":"U","NORAD_CAT_ID":47287,"ELEMENT_SET_NO":999,"REV_AT_EPOCH":22249,"BSTAR":-0.00095714,"MEAN_MOTION_DOT":-3.32e-6,"MEAN_MOTION_DDOT":0}]
