ONEWEB-0125             
1 47271U 20100P   25211.91028742 -.00000262  00000+0 -76407-3 0  9996
2 47271  87.8862  54.5160 0001745  95.3517 264.7810 13.12443619222491
ONEWEB-0126             
1 47272U 20100Q   25211.93152838  .00000352  00000+0  94321-3 0  9996
2 47272  87.8869  54.5296 0001652  83.7646 276.3671 13.12443403222563
ONEWEB-0127             
1 47273U 20100R   25211.82106937 -.00000435  00000+0 -12454-2 0  9994
2 47273  87.8863  54.5669 0001696  81.1064 279.0257 13.12443254222571
ONEWEB-0128             
1 47274U 20100S   25211.92002303  .00000085  00000+0  20041-3 0  9999
2 47274  87.8856  54.5740 0001901  79.4157 280.7185 13.12443665222605
ONEWEB-0129             
1 47275U 20100T   25211.82269438 -.00000414  00000+0 -11873-2 0  9993
2 47275  87.8861  54.5361 0001124  42.8498 317.2718 13.12443002222524
ONEWEB-0130             
1 47276U 20100U   25211.92650974  .00000259  00000+0  68453-3 0  9996
2 47276  87.8847  54.5153 0001776  82.3239 277.8091 13.12445770222500
ONEWEB-0131             
1 47277U 20100V   25211.92327483  .00000188  00000+0  48730-3 0  9990
2 47277  87.8857  54.5426 0001834  84.6071 275.5267 13.12442802222546
ONEWEB-0132             
1 47278U 20100W   25211.79999215  .00000119  00000+0  29574-3 0  9993
2 47278  87.8857  54.5696 0001886  90.4291 269.7053 13.12442515222428
ONEWEB-0133             
1 47279U 20100X   25211.81606852 -.00000330  00000+0 -95405-3 0  9992
2 47279  87.8847  54.5412 0001899  83.4847 276.6498 13.12442631222583
ONEWEB-0134             
1 47280U 20100Y   25211.93786540  .00000476  00000+0  12882-2 0  9996
2 47280  87.8850  54.5005 0001808  77.5589 282.5742 13.12442371222572
ONEWEB-0135             
1 47281U 20100Z   25211.83242797 -.00000228  00000+0 -66830-3 0  9997
2 47281  87.8855  54.5607 0002025  74.5827 285.5525 13.12443485222580
ONEWEB-0136             
1 47282U 20100AA  25211.92813646  .00000282  00000+0  74926-3 0  9998
2 47282  87.8857  54.5088 0001781  70.6433 289.4888 13.12442606222527
ONEWEB-0137             
1 47283U 20100AB  25211.80972071 -.00000195  00000+0 -57620-3 0  9991
2 47283  87.8856  54.5393 0001562  88.4944 271.6363 13.12441843222418
ONEWEB-0138             
1 47284U 20100AC  25211.94111287  .00000419  00000+0  11295-2 0  9995
2 47284  87.8852  54.5235 0001708  81.7598 278.3724 13.12442044222513
ONEWEB-0139             
1 47285U 20100AD  25211.59899428 -.00000348  00000+0 -10019-2 0  9993
2 47285  87.8853  54.5850 0001741  85.3674 274.7654 13.12442181222547
ONEWEB-0140             
1 47286U 20100AE  25211.93462496  .00000387  00000+0  10405-2 0  9993
2 47286  87.8850  54.5018 0001748  81.7565 278.3761 13.12442174222559
ONEWEB-0141             
1 47287U 20100AF  25211.59872320 -.00000332  00000+0 -95714-3 0  9996
2 47287  87.8847  54.5866 0001470  91.8451 268.2845 13.12443378222496
